SBIRS GEO-6 (USA 336)   
1 53355U 22092A   23212.42607949  .00000123  00000+0  00000+0 0  9991
2 53355   5.8515 311.0053 0013505 176.6218 189.7626  1.00273046  3684
EUTELSAT KONNECT VHTS   
1 53765U 22110A   23206.27781903  .00000031  00000+0  00000+0 0  9994
2 53765   0.0470  93.1104 0002939  28.1916 284.1277  1.00270963  3188
CHINASAT 1E (ZX 1E)     
1 53813U 22112A   23213.79098809 -.00000155  00000+0  00000+0 0  9999
2 53813   0.6999 277.3418 0002855 208.2905 190.6342  1.00269140  3318
SES-20                  
1 53960U 22123A   23213.85388323 -.00000107  00000+0  00000+0 0  9991
2 53960   0.0219 148.2397 0002205 308.8576  57.3789  1.00270117  3008
SES-21                  
1 53961U 22123B   23211.73130597  .00000072  00000+0  00000+0 0  9995
2 53961   0.0149  29.6219 0000872  99.3139 311.4163  1.00269687  2998
GALAXY 33 (G-33)        
1 54026U 22128A   23213.70450573  .00000073  00000+0  00000+0 0  9992
2 54026   0.0128  64.8078 0002039  65.5131 300.3283  1.00271454  3217
GALAXY 34 (G-34)        
1 54027U 22128B   23213.64090822  .00000053  00000+0  00000+0 0  9991
2 54027   0.0121  45.2683 0001402  91.9203 274.5062  1.00272574  3246
ANGOSAT 2               
1 54033U 22131A   23212.66051603  .00000133  00000+0  00000+0 0  9996
2 54033   0.0220 158.6411 0000354  88.5285 322.6135  1.00270928  2930
EUTELSAT HOTBIRD 13F    
1 54048U 22134A   23213.65961581  .00000002  00000+0  00000+0 0  9995
2 54048   0.0827 283.4208 0002120 315.3898 310.0821  1.00272053  2916
EUTELSAT HOTBIRD 13G    
1 54225U 22146A   23212.87354413  .00000084  00000+0  00000+0 0  9998
2 54225   0.0736 258.2083 0004108 297.4333  81.0374  1.00273125  2677
CHINASAT 19 (ZX 19)     
1 54230U 22148A   23212.61684644 -.00000081  00000+0  00000+0 0  9998
2 54230   0.0525 252.0476 0005584 337.1412 105.1968  1.00274047  2824
GALAXY 31 (G-31)        
1 54243U 22153A   23213.63520965  .00000007  00000+0  00000+0 0  9993
2 54243   0.0189  91.0404 0002010 156.7262 169.8851  1.00270430  2623
GALAXY 32 (G-32)        
1 54244U 22153B   23212.36101774 -.00000174  00000+0  00000+0 0  9992
2 54244   0.0116  57.0704 0001554   9.7439 280.8589  1.00270728  2615
EUTELSAT 10B            
1 54259U 22157A   23214.37760061  .00000060  00000+0  00000+0 0  9998
2 54259   0.0505  92.7371 0002841 115.6171 248.3205  1.00272821  2529
GALAXY 35 (G-35)        
1 54741U 22170A   23214.50245906 -.00000171  00000+0  00000+0 0  9994
2 54741   0.0271  91.2452 0001089  97.9741 209.3969  1.00269940  2383
GALAXY 36 (G-36)        
1 54742U 22170B   23213.64157270 -.00000191  00000+0  00000+0 0  9997
2 54742   0.0252  93.4383 0003494  18.2345 340.2690  1.00268020  2382
METEOSAT-12 (MTG-I1)    
1 54743U 22170C   23213.73037597 -.00000036  00000+0  00000+0 0  9995
2 54743   0.6266 313.0055 0002669 159.0296  97.7021  1.00267527  2432
SHIJIAN-23 (SJ-23)      
1 55131U 23002A   23214.70244696 -.00000343  00000+0  00000+0 0  9991
2 55131   1.0037  92.1347 0000205  38.6103 200.1680  1.00433942  2164
USA 340                 
1 55138U 22144E   23208.94444444  .00000133  00000+0  00000+0 0  9992
2 55138   3.2078  66.5618 0006967 171.4117 265.2260  0.99896787  1216
USA 342                 
1 55263U 23008A   23202.53947251  .00000024  00000+0  00000+0 0  9993
2 55263   0.0150  69.9848 0000634 137.3535 164.0311  1.00273514  1878
LDPE-3A                 
1 55264U 23008B   23213.67835625 -.00000086  00000+0  00000+0 0  9991
2 55264   0.4168  89.2946 0000514 152.4209  48.0029  0.99292791  1264
ELEKTRO-L 4             
1 55506U 23016A   23213.67829461 -.00000064  00000+0  00000+0 0  9996
2 55506   0.1395 311.5359 0000796 355.0428  53.4015  1.00273161  1782
CHINASAT 26 (ZX 26)     
1 55686U 23023A   23212.28416888 -.00000353  00000+0  00000+0 0  9995
2 55686   0.0624  89.0131 0003354  16.2782  70.7886  1.00273692  1699
LUCH-5X (OLYMP-K 2)     
1 55841U 23031A   23214.37760062  .00000053  00000+0  00000+0 0  9991
2 55841   0.0069 119.9413 0001173  26.6030 309.0231  1.00271524  1424
GAOFEN 13-02            
1 55912U 23036A   23213.68855454 -.00000235  00000+0  00000+0 0  9991
2 55912   2.7448 301.3450 0002756 272.1483 131.0717  1.00267868  1551
SES-18                  
1 55970U 23038A   23212.63541256 -.00000103  00000+0  00000+0 0  9997
2 55970   0.0623 261.7230 0001024 287.2006 245.7049  1.00272280  1578
SES-19                  
1 55971U 23038B   23214.47570024  .00000079  00000+0  00000+0 0  9998
2 55971   0.0448 270.3070 0001785 216.3754 220.4592  1.00270793  1557
INTELSAT 40E (IS-40E)   
1 56174U 23052A   23213.64122403 -.00000180  00000+0  00000+0 0  9996
2 56174   0.0196 102.2887 0002721  44.6825 302.8333  1.00269905  1308
VIASAT-3                
1 56370U 23060A   23214.50166315 -.00000194  00000+0  00000+0 0  9994
2 56370   0.0182 282.1579 0001727 201.2812 279.0399  1.00269386   915
ARCTURUS                
1 56371U 23060B   23213.69857851  .00000122  00000+0  00000+0 0  9996
2 56371   0.0550  78.6051 0001406 119.0860 200.8242  1.00272946   927
BEIDOU-3 G4             
1 56564U 23066A   23213.90612399 -.00000117  00000+0  00000+0 0  9991
2 56564   2.9269 288.9557 0007466 201.1283 306.2919  1.00269603   872
IRNSS-1J (NVS-01)       
1 56759U 23076A   23211.89076466 -.00000330  00000+0  00000+0 0  9990
2 56759   4.8303 272.7361 0004172 329.8538 155.7737  1.00263079   656
